{"type": "FeatureCollection", "features": [ {"type": "Feature", "properties": {"norad_id": 66687, "name": "TRANSPORTER-15X", "group": "last-30-days", "lat": -21.809626282606285, "lon": 73.90910178538371, "alt_km": 518.9099861275254, "timestamp": "2025-12-25T09:48:51.004316+00:00", "meta": {"OBJECT_NAME": "TRANSPORTER-15X", "OBJECT_ID": "2025-276X", "EPOCH": "2025-12-25T03:34:39.355104", "MEAN_MOTION": 15.16762597, "ECCENTRICITY": 0.000809, "INCLINATION": 97.4384, "RA_OF_ASC_NODE": 70.6573, "ARG_OF_PERICENTER": 46.6765, "MEAN_ANOMALY": 313.5141, "EPHEMERIS_TYPE": 0, "CLASSIFICATION_TYPE": "U", "NORAD_CAT_ID": 66687, "ELEMENT_SET_NO": 999, "REV_AT_EPOCH": 400, "BSTAR": 0.00072936, "MEAN_MOTION_DOT": 0.00014276, "MEAN_MOTION_DDOT": 0}, "tle": {"line1": "1 66687U 25276X   25359.14906661  .00014276  00000+0  72936-3 0  9991", "line2": "2 66687  97.4384  70.6573 0008090  46.6765 313.5141 15.16762597  4000"}}, "geometry": {"type": "Point", "coordinates": [73.90910178538371, -21.809626282606285]}}, {"type": "Feature", "properties": {"norad_id": 66688, "name": "TRANSPORTER-15Y", "group": "last-30-days", "lat": 15.506273770001416, "lon": 68.86640086416571, "alt_km": 517.3848922438992, "timestamp": "2025-12-25T09:48:51.004326+00:00", "meta": {"OBJECT_NAME": "TRANSPORTER-15Y", "OBJECT_ID": "2025-276Y", "EPOCH": "2025-12-25T03:24:48.818016", "MEAN_MOTION": 15.17112958, "ECCENTRICITY": 0.0003768, "INCLINATION": 97.4427, "RA_OF_ASC_NODE": 70.683, "ARG_OF_PERICENTER": 237.2759, "MEAN_ANOMALY": 122.8111, "EPHEMERIS_TYPE": 0, "CLASSIFICATION_TYPE": "U", "NORAD_CAT_ID": 66688, "ELEMENT_SET_NO": 999, "REV_AT_EPOCH": 400, "BSTAR": 0.00050885, "MEAN_MOTION_DOT": 0.00010028, "MEAN_MOTION_DDOT": 0}, "tle": {"line1": "1 66688U 25276Y   25359.14223169  .00010028  00000+0  50885-3 0  9997", "line2": "2 66688  97.4427  70.6830 0003768 237.2759 122.8111 15.17112958  4002"}}, "geometry": {"type": "Point", "coordinates": [68.86640086416571, 15.506273770001416]}}, {"type": "Feature", "properties": {"norad_id": 66689, "name": "TRANSPORTER-15Z", "group": "last-30-days", "lat": 28.63595087336911, "lon": -104.91045109757295, "alt_km": 461.8996121733235, "timestamp": "2025-12-25T09:48:51.004338+00:00", "meta": {"OBJECT_NAME": "TRANSPORTER-15Z", "OBJECT_ID": "2025-276Z", "EPOCH": "2025-12-22T21:27:46.425312", "MEAN_MOTION": 15.23073772, "ECCENTRICITY": 0.00272271, "INCLINATION": 97.4409, "RA_OF_ASC_NODE": 68.4858, "ARG_OF_PERICENTER": 260.8557, "MEAN_ANOMALY": 98.9599, "EPHEMERIS_TYPE": 0, "CLASSIFICATION_TYPE": "U", "NORAD_CAT_ID": 66689, "ELEMENT_SET_NO": 999, "REV_AT_EPOCH": 366, "BSTAR": 0.086131248, "MEAN_MOTION_DOT": 0.02294864, "MEAN_MOTION_DDOT": 0}, "tle": {"line1": "1 66689U 25276Z   25356.89428733  .02294864  00000+0  86131-1 0  9996", "line2": "2 66689  97.4409  68.4858 0027227 260.8557  98.9599 15.23073772  3663"}}, "geometry": {"type": "Point", "coordinates": [-104.91045109757295, 28.63595087336911]}}, {"type": "Feature", "properties": {"norad_id": 66690, "name": "TRANSPORTER-15AA", "group": "last-30-days", "lat": 14.958819265547943, "lon": 68.93149496913729, "alt_km": 517.5128807883921, "timestamp": "2025-12-25T09:48:51.004348+00:00", "meta": {"OBJECT_NAME": "TRANSPORTER-15AA", "OBJECT_ID": "2025-276AA", "EPOCH": "2025-12-25T03:24:57.135744", "MEAN_MOTION": 15.1708537, "ECCENTRICITY": 0.0003694, "INCLINATION": 97.439, "RA_OF_ASC_NODE": 70.6704, "ARG_OF_PERICENTER": 236.9066, "MEAN_ANOMALY": 123.1813, "EPHEMERIS_TYPE": 0, "CLASSIFICATION_TYPE": "U", "NORAD_CAT_ID": 66690, "ELEMENT_SET_NO": 999, "REV_AT_EPOCH": 400, "BSTAR": 0.00038259, "MEAN_MOTION_DOT": 7.515e-05, "MEAN_MOTION_DDOT": 0}, "tle": {"line1": "1 66690U 25276AA  25359.14232796  .00007515  00000+0  38259-3 0  9994", "line2": "2 66690  97.4390  70.6704 0003694 236.9066 123.1813 15.17085370  4009"}}, "geometry": {"type": "Point", "coordinates": [68.93149496913729, 14.958819265547943]}}, {"type": "Feature", "properties": {"norad_id": 66691, "name": "TRANSPORTER-15AB", "group": "last-30-days", "lat": 28.0622543088994, "lon": 66.94999451560685, "alt_km": 514.9849890382147, "timestamp": "2025-12-25T09:48:51.004360+00:00", "meta": {"OBJECT_NAME": "TRANSPORTER-15AB", "OBJECT_ID": "2025-276AB", "EPOCH": "2025-12-25T03:21:31.726656", "MEAN_MOTION": 15.17345286, "ECCENTRICITY": 0.0003791, "INCLINATION": 97.4414, "RA_OF_ASC_NODE": 70.6813, "ARG_OF_PERICENTER": 238.7604, "MEAN_ANOMALY": 121.3258, "EPHEMERIS_TYPE": 0, "CLASSIFICATION_TYPE": "U", "NORAD_CAT_ID": 66691, "ELEMENT_SET_NO": 999, "REV_AT_EPOCH": 400, "BSTAR": 0.00062927, "MEAN_MOTION_DOT": 0.00012504, "MEAN_MOTION_DDOT": 0}, "tle": {"line1": "1 66691U 25276AB  25359.13995054  .00012504  00000+0  62927-3 0  9990", "line2": "2 66691  97.4414  70.6813 0003791 238.7604 121.3258 15.17345286  4002"}}, "geometry": {"type": "Point", "coordinates": [66.94999451560685, 28.0622543088994]}}, {"type": "Feature", "properties": {"norad_id": 66692, "name": "TRANSPORTER-15AC", "group": "last-30-days", "lat": 45.76442616130983, "lon": 63.24210228727849, "alt_km": 510.7803767830492, "timestamp": "2025-12-25T09:48:51.004370+00:00", "meta": {"OBJECT_NAME": "TRANSPORTER-15AC", "OBJECT_ID": "2025-276AC", "EPOCH": "2025-12-25T04:51:46.971072", "MEAN_MOTION": 15.1743414, "ECCENTRICITY": 0.0001779, "INCLINATION": 97.4415, "RA_OF_ASC_NODE": 70.7541, "ARG_OF_PERICENTER": 253.086, "MEAN_ANOMALY": 107.0178, "EPHEMERIS_TYPE": 0, "CLASSIFICATION_TYPE": "U", "NORAD_CAT_ID": 66692, "ELEMENT_SET_NO": 999, "REV_AT_EPOCH": 401, "BSTAR": 0.00035532, "MEAN_MOTION_DOT": 7.044e-05, "MEAN_MOTION_DDOT": 0}, "tle": {"line1": "1 66692U 25276AC  25359.20262698  .00007044  00000+0  35532-3 0  9995", "line2": "2 66692  97.4415  70.7541 0001779 253.0860 107.0178 15.17434140  4012"}}, "geometry": {"type": "Point", "coordinates": [63.24210228727849, 45.76442616130983]}}, {"type": "Feature", "properties": {"norad_id": 66693, "name": "TRANSPORTER-15AD", "group": "last-30-days", "lat": 47.423690334485705, "lon": 62.76327194097122, "alt_km": 510.5068237562664, "timestamp": "2025-12-25T09:48:51.004383+00:00", "meta": {"OBJECT_NAME": "TRANSPORTER-15AD", "OBJECT_ID": "2025-276AD", "EPOCH": "2025-12-24T20:56:40.466976", "MEAN_MOTION": 15.17671154, "ECCENTRICITY": 0.0003242, "INCLINATION": 97.4369, "RA_OF_ASC_NODE": 70.41, "ARG_OF_PERICENTER": 264.5717, "MEAN_ANOMALY": 95.5147, "EPHEMERIS_TYPE": 0, "CLASSIFICATION_TYPE": "U", "NORAD_CAT_ID": 66693, "ELEMENT_SET_NO": 999, "REV_AT_EPOCH": 396, "BSTAR": 0.00094155, "MEAN_MOTION_DOT": 0.00018934, "MEAN_MOTION_DDOT": 0}, "tle": {"line1": "1 66693U 25276AD  25358.87269059  .00018934  00000+0  94155-3 0  9992", "line2": "2 66693  97.4369  70.4100 0003242 264.5717  95.5147 15.17671154  3962"}}, "geometry": {"type": "Point", "coordinates": [62.76327194097122, 47.423690334485705]}}, {"type": "Feature", "properties": {"norad_id": 66694, "name": "YAM-9", "group": "last-30-days", "lat": 56.38554031881871, "lon": 59.616878177503665, "alt_km": 508.7100864402737, "timestamp": "2025-12-25T09:48:51.004394+00:00", "meta": {"OBJECT_NAME": "YAM-9", "OBJECT_ID": "2025-276AE", "EPOCH": "2025-12-25T03:14:00.526848", "MEAN_MOTION": 15.17600073, "ECCENTRICITY": 0.0001438, "INCLINATION": 97.4416, "RA_OF_ASC_NODE": 70.6869, "ARG_OF_PERICENTER": 240.8669, "MEAN_ANOMALY": 119.2421, "EPHEMERIS_TYPE": 0, "CLASSIFICATION_TYPE": "U", "NORAD_CAT_ID": 66694, "ELEMENT_SET_NO": 999, "REV_AT_EPOCH": 400, "BSTAR": 0.00062229, "MEAN_MOTION_DOT": 0.00012454, "MEAN_MOTION_DDOT": 0}, "tle": {"line1": "1 66694U 25276AE  25359.13472832  .00012454  00000+0  62229-3 0  9996", "line2": "2 66694  97.4416  70.6869 0001438 240.8669 119.2421 15.17600073  4005"}}, "geometry": {"type": "Point", "coordinates": [59.616878177503665, 56.38554031881871]}}, {"type": "Feature", "properties": {"norad_id": 66695, "name": "IRIDE FM1", "group": "last-30-days", "lat": 57.95142057433437, "lon": -96.9761561895581, "alt_km": 504.2043315103065, "timestamp": "2025-12-25T09:48:51.004404+00:00", "meta": {"OBJECT_NAME": "IRIDE FM1", "OBJECT_ID": "2025-276AF", "EPOCH": "2025-12-25T02:57:19.368576", "MEAN_MOTION": 15.18308505, "ECCENTRICITY": 0.0001762, "INCLINATION": 97.4382, "RA_OF_ASC_NODE": 70.6976, "ARG_OF_PERICENTER": 136.106, "MEAN_ANOMALY": 224.0314, "EPHEMERIS_TYPE": 0, "CLASSIFICATION_TYPE": "U", "NORAD_CAT_ID": 66695, "ELEMENT_SET_NO": 999, "REV_AT_EPOCH": 400, "BSTAR": 0.0006396, "MEAN_MOTION_DOT": 0.00013067, "MEAN_MOTION_DDOT": 0}, "tle": {"line1": "1 66695U 25276AF  25359.12314084  .00013067  00000+0  63960-3 0  9994", "line2": "2 66695  97.4382  70.6976 0001762 136.1060 224.0314 15.18308505  4001"}}, "geometry": {"type": "Point", "coordinates": [-96.9761561895581, 57.95142057433437]}}, {"type": "Feature", "properties": {"norad_id": 66696, "name": "IRIDE FM2", "group": "last-30-days", "lat": 41.95781472032426, "lon": 64.19491419344838, "alt_km": 511.62531943305385, "timestamp": "2025-12-25T09:48:51.004414+00:00", "meta": {"OBJECT_NAME": "IRIDE FM2", "OBJECT_ID": "2025-276AG", "EPOCH": "2025-12-25T03:17:50.929728", "MEAN_MOTION": 15.17450682, "ECCENTRICITY": 0.0002477, "INCLINATION": 97.4384, "RA_OF_ASC_NODE": 70.674, "ARG_OF_PERICENTER": 256.3373, "MEAN_ANOMALY": 103.7585, "EPHEMERIS_TYPE": 0, "CLASSIFICATION_TYPE": "U", "NORAD_CAT_ID": 66696, "ELEMENT_SET_NO": 999, "REV_AT_EPOCH": 400, "BSTAR": 0.00047133, "MEAN_MOTION_DOT": 9.373e-05, "MEAN_MOTION_DDOT": 0}, "tle": {"line1": "1 66696U 25276AG  25359.13739502  .00009373  00000+0  47133-3 0  9991", "line2": "2 66696  97.4384  70.6740 0002477 256.3373 103.7585 15.17450682  4005"}}, "geometry": {"type": "Point", "coordinates": [64.19491419344838, 41.95781472032426]}}]}